<ndm xmlns:xsi="http://www.w3.org/2001/XMLSchema-instance" xsi:noNamespaceSchemaLocation="https://sanaregistry.org/r/ndmxml_unqualified/ndmxml-3.0.0-master-3.0.xsd">
<omm id="CCSDS_OMM_VERS" version="3.0">
<header>
<COMMENT>GENERATED VIA SPACE-TRACK.ORG API</COMMENT>
<CREATION_DATE>2026-01-08T01:16:23</CREATION_DATE>
<ORIGINATOR>18 SPCS</ORIGINATOR>
</header>
<body>
<segment>
<metadata>
<OBJECT_NAME>H-2A DEB</OBJECT_NAME>
<OBJECT_ID>2017-082D</OBJECT_ID>
<CENTER_NAME>EARTH</CENTER_NAME>
<REF_FRAME>TEME</REF_FRAME>
<TIME_SYSTEM>UTC</TIME_SYSTEM>
<MEAN_ELEMENT_THEORY>SGP4</MEAN_ELEMENT_THEORY>
</metadata>
<data>
<meanElements>
<EPOCH>2026-01-08T00:23:28.041792</EPOCH>
<MEAN_MOTION>16.44496501</MEAN_MOTION>
<ECCENTRICITY>0.00037100</ECCENTRICITY>
<INCLINATION>97.9775</INCLINATION>
<RA_OF_ASC_NODE>179.9880</RA_OF_ASC_NODE>
<ARG_OF_PERICENTER>357.7541</ARG_OF_PERICENTER>
<MEAN_ANOMALY>2.3742</MEAN_ANOMALY>
</meanElements>
<tleParameters>
<EPHEMERIS_TYPE>0</EPHEMERIS_TYPE>
<CLASSIFICATION_TYPE>U</CLASSIFICATION_TYPE>
<NORAD_CAT_ID>43068</NORAD_CAT_ID>
<ELEMENT_SET_NO>999</ELEMENT_SET_NO>
<REV_AT_EPOCH>43886</REV_AT_EPOCH>
<BSTAR>0.00044681000000</BSTAR>
<MEAN_MOTION_DOT>0.13073258</MEAN_MOTION_DOT>
<MEAN_MOTION_DDOT>0.0000026736000</MEAN_MOTION_DDOT>
</tleParameters>
<userDefinedParameters>
<USER_DEFINED parameter="SEMIMAJOR_AXIS">6532.005</USER_DEFINED>
<USER_DEFINED parameter="PERIOD">87.565</USER_DEFINED>
<USER_DEFINED parameter="APOAPSIS">156.294</USER_DEFINED>
<USER_DEFINED parameter="PERIAPSIS">151.447</USER_DEFINED>
<USER_DEFINED parameter="OBJECT_TYPE">DEBRIS</USER_DEFINED>
<USER_DEFINED parameter="RCS_SIZE">LARGE</USER_DEFINED>
<USER_DEFINED parameter="COUNTRY_CODE">JPN</USER_DEFINED>
<USER_DEFINED parameter="LAUNCH_DATE">2017-12-23</USER_DEFINED>
<USER_DEFINED parameter="SITE">TNSTA</USER_DEFINED>
<USER_DEFINED parameter="DECAY_DATE">2026-01-08</USER_DEFINED>
<USER_DEFINED parameter="FILE">4962741</USER_DEFINED>
<USER_DEFINED parameter="GP_ID">308314929</USER_DEFINED>
</userDefinedParameters>
</data>
</segment>
</body>
</omm>
</ndm>